TRANSPORTER-15 OBJECT CZ
1 66761U 25276CZ  26068.73075237  .00011576  00000+0  53312-3 0  9990
2 66761  97.4256 144.1611 0000691 127.7851 232.3447 15.20454432 15333
LEMUR-2-LAILA           
1 66776U 25276DQ  26068.72945049  .00007609  00000+0  35559-3 0  9997
2 66776  97.4243 144.1425 0002283 132.0154 228.1276 15.20071210 15334
